COMMENT,ORIGINATOR,NORAD_CAT_ID,OBJECT_NAME,OBJECT_TYPE,CLASSIFICATION_TYPE,INTLDES,EPOCH,EPOCH_MICROSECONDS,MEAN_MOTION,ECCENTRICITY,INCLINATION,RA_OF_ASC_NODE,ARG_OF_PERICENTER,MEAN_ANOMALY,EPHEMERIS_TYPE,ELEMENT_SET_NO,REV_AT_EPOCH,BSTAR,MEAN_MOTION_DOT,MEAN_MOTION_DDOT,FILE,TLE_LINE0,TLE_LINE1,TLE_LINE2,OBJECT_ID,OBJECT_NUMBER,SEMIMAJOR_AXIS,PERIOD,APOGEE,PERIGEE,DECAYED
"GENERATED VIA SPACETRACK.ORG API","18 SPCS","48883","SPACEBEE-100","PAYLOAD","U","21059E","2024-02-22 22:13:11","739648","15.84015972","0.0007655","97.5999","208.4227","301.0287","59.0229","0","999","14816","0.0019039","0.00445568","0","4196009","0 SPACEBEE-100","1 48883U 21059E   24053.92583032  .00445568  00000-0  19039-2 0  9990","2 48883  97.5999 208.4227 0007655 301.0287  59.0229 15.84015972148169","2021-059E","48883","6697.234","90.908","324.226","313.972","0"
"GENERATED VIA SPACETRACK.ORG API","18 SPCS","48883","SPACEBEE-100","PAYLOAD","U","21059E","2024-02-22 22:13:11","739648","15.84015972","0.0007655","97.5999","208.4227","301.0287","59.0229","0","999","14816","0.0019039","0.00445568","0","4196194","0 SPACEBEE-100","1 48883U 21059E   24053.92583032  .00445568  00000-0  19039-2 0  9990","2 48883  97.5999 208.4227 0007655 301.0287  59.0229 15.84015972148169","2021-059E","48883","6697.234","90.908","324.226","313.972","0"
"GENERATED VIA SPACETRACK.ORG API","18 SPCS","48883","SPACEBEE-100","PAYLOAD","U","21059E","2024-02-23 08:49:53","321664","15.84432308","0.0007723","97.5998","208.9131","301.0267","59.0244","0","999","14823","0.001829","0.00436061","0","4196438","0 SPACEBEE-100","1 48883U 21059E   24054.36797826  .00436061  00000-0  18290-2 0  9993","2 48883  97.5998 208.9131 0007723 301.0267  59.0244 15.84432308148232","2021-059E","48883","6696.061","90.884","323.097","312.754","0"
"GENERATED VIA SPACETRACK.ORG API","18 SPCS","48883","SPACEBEE-100","PAYLOAD","U","21059E","2024-02-23 08:49:53","321664","15.84432308","0.0007723","97.5998","208.9131","301.0267","59.0244","0","999","14823","0.001829","0.00436061","0","4196606","0 SPACEBEE-100","1 48883U 21059E   24054.36797826  .00436061  00000-0  18290-2 0  9993","2 48883  97.5998 208.9131 0007723 301.0267  59.0244 15.84432308148232","2021-059E","48883","6696.061","90.884","323.097","312.754","0"
"GENERATED VIA SPACETRACK.ORG API","18 SPCS","48883","SPACEBEE-100","PAYLOAD","U","21059E","2024-02-23 22:28:15","138912","15.84975867","0.0007736","97.599","209.5441","301.8007","58.2509","0","999","14832","0.0020033","0.00493244","0","4196938","0 SPACEBEE-100","1 48883U 21059E   24054.93628633  .00493244  00000-0  20033-2 0  9999","2 48883  97.5990 209.5441 0007736 301.8007  58.2509 15.84975867148326","2021-059E","48883","6694.530","90.853","321.574","311.216","0"
"GENERATED VIA SPACETRACK.ORG API","18 SPCS","48883","SPACEBEE-100","PAYLOAD","U","21059E","2024-02-23 22:28:15","138912","15.84975867","0.0007736","97.599","209.5441","301.8007","58.2509","0","999","14832","0.0020033","0.00493244","0","4197156","0 SPACEBEE-100","1 48883U 21059E   24054.93628633  .00493244  00000-0  20033-2 0  9999","2 48883  97.5990 209.5441 0007736 301.8007  58.2509 15.84975867148326","2021-059E","48883","6694.530","90.853","321.574","311.216","0"
"GENERATED VIA SPACETRACK.ORG API","18 SPCS","48883","SPACEBEE-100","PAYLOAD","U","21059E","2024-02-24 09:04:33","694464","15.85411616","0.0008245","97.5995","210.0353","304.2853","55.7635","0","999","14839","0.0019752","0.00496822","0","4197403","0 SPACEBEE-100","1 48883U 21059E   24055.37816776  .00496822  00000-0  19752-2 0  9996","2 48883  97.5995 210.0353 0008245 304.2853  55.7635 15.85411616148399","2021-059E","48883","6693.303","90.828","320.687","309.649","0"
"GENERATED VIA SPACETRACK.ORG API","18 SPCS","48883","SPACEBEE-100","PAYLOAD","U","21059E","2024-02-24 09:04:33","694464","15.85411616","0.0008245","97.5995","210.0353","304.2853","55.7635","0","999","14839","0.0019752","0.00496822","0","4197491","0 SPACEBEE-100","1 48883U 21059E   24055.37816776  .00496822  00000-0  19752-2 0  9996","2 48883  97.5995 210.0353 0008245 304.2853  55.7635 15.85411616148399","2021-059E","48883","6693.303","90.828","320.687","309.649","0"
"GENERATED VIA SPACETRACK.ORG API","18 SPCS","48883","SPACEBEE-100","PAYLOAD","U","21059E","2024-02-24 16:38:57","745824","15.85726319","0.0008108","97.5991","210.385","302.2726","57.7758","0","999","14844","0.0020995","0.00538569","0","4197642","0 SPACEBEE-100","1 48883U 21059E   24055.69372391  .00538569  00000-0  20995-2 0  9997","2 48883  97.5991 210.3850 0008108 302.2726  57.7758 15.85726319148448","2021-059E","48883","6692.417","90.810","319.709","308.856","0"
"GENERATED VIA SPACETRACK.ORG API","18 SPCS","48883","SPACEBEE-100","PAYLOAD","U","21059E","2024-02-24 21:11:33","681408","15.85918532","0.0008153","97.5989","210.5954","302.6987","57.3496","0","999","14847","0.0021474","0.00557116","0","4197760","0 SPACEBEE-100","1 48883U 21059E   24055.88302872  .00557116  00000-0  21474-2 0  9997","2 48883  97.5989 210.5954 0008153 302.6987  57.3496 15.85918532148473","2021-059E","48883","6691.877","90.799","319.198","308.286","0"
"GENERATED VIA SPACETRACK.ORG API","18 SPCS","48883","SPACEBEE-100","PAYLOAD","U","21059E","2024-02-25 09:18:18","858528","15.86472469","0.0008289","97.5987","211.1569","301.825","58.2212","0","999","14855","0.0021387","0.00570726","0","4198268","0 SPACEBEE-100","1 48883U 21059E   24056.38771827  .00570726  00000-0  21387-2 0  9998","2 48883  97.5987 211.1569 0008289 301.8250  58.2212 15.86472469148554","2021-059E","48883","6690.319","90.767","317.729","306.638","0"
"GENERATED VIA SPACETRACK.ORG API","18 SPCS","48883","SPACEBEE-100","PAYLOAD","U","21059E","2024-02-25 09:18:18","858528","15.86472469","0.0008289","97.5987","211.1569","301.825","58.2212","0","999","14855","0.0021387","0.00570726","0","4198379","0 SPACEBEE-100","1 48883U 21059E   24056.38771827  .00570726  00000-0  21387-2 0  9998","2 48883  97.5987 211.1569 0008289 301.8250  58.2212 15.86472469148554","2021-059E","48883","6690.319","90.767","317.729","306.638","0"
"GENERATED VIA SPACETRACK.ORG API","18 SPCS","48883","SPACEBEE-100","PAYLOAD","U","21059E","2024-02-25 22:55:35","306400","15.87173396","0.0008503","97.5983","211.7884","301.4074","58.6365","0","999","14864","0.0023407","0.00652115","0","4198683","0 SPACEBEE-100","1 48883U 21059E   24056.95526975  .00652115  00000-0  23407-2 0  9991","2 48883  97.5983 211.7884 0008503 301.4074  58.6365 15.87173396148646","2021-059E","48883","6688.349","90.727","315.901","304.527","0"
"GENERATED VIA SPACETRACK.ORG API","18 SPCS","48883","SPACEBEE-100","PAYLOAD","U","21059E","2024-02-25 22:55:35","306400","15.87173396","0.0008503","97.5983","211.7884","301.4074","58.6365","0","999","14864","0.0023407","0.00652115","0","4198874","0 SPACEBEE-100","1 48883U 21059E   24056.95526975  .00652115  00000-0  23407-2 0  9991","2 48883  97.5983 211.7884 0008503 301.4074  58.6365 15.87173396148646","2021-059E","48883","6688.349","90.727","315.901","304.527","0"
"GENERATED VIA SPACETRACK.ORG API","18 SPCS","48883","SPACEBEE-100","PAYLOAD","U","21059E","2024-02-26 09:30:59","903424","15.87715353","0.0008544","97.5983","212.2805","300.3475","59.6951","0","999","14871","0.0022898","0.00608046","0.00014143","4199244","0 SPACEBEE-100","1 48883U 21059E   24057.39652666  .00608046  14143-3  22898-2 0  9990","2 48883  97.5983 212.2805 0008544 300.3475  59.6951 15.87715353148718","2021-059E","48883","6686.827","90.696","314.405","302.979","0"
"GENERATED VIA SPACETRACK.ORG API","18 SPCS","48883","SPACEBEE-100","PAYLOAD","U","21059E","2024-02-26 23:07:38","438976","15.88403655","0.0008724","97.5984","212.9129","300.1858","59.8548","0","999","14880","0.0022221","0.006105","0.00014385","4199693","0 SPACEBEE-100","1 48883U 21059E   24057.96363934  .00610500  14385-3  22221-2 0  9996","2 48883  97.5984 212.9129 0008724 300.1858  59.8548 15.88403655148802","2021-059E","48883","6684.895","90.657","312.592","300.928","0"
"GENERATED VIA SPACETRACK.ORG API","18 SPCS","48883","SPACEBEE-100","PAYLOAD","U","21059E","2024-02-27 09:42:33","454368","15.88961382","0.0008823","97.5985","213.405","299.5871","60.4521","0","999","14887","0.0022537","0.00636519","0.0001581","4200159","0 SPACEBEE-100","1 48883U 21059E   24058.40455387  .00636519  15810-3  22537-2 0  9992","2 48883  97.5985 213.4050 0008823 299.5871  60.4521 15.88961382148870","2021-059E","48883","6683.331","90.625","311.092","299.299","0"
"GENERATED VIA SPACETRACK.ORG API","18 SPCS","48883","SPACEBEE-100","PAYLOAD","U","21059E","2024-02-27 09:42:33","454368","15.88961382","0.0008823","97.5985","213.405","299.5871","60.4521","0","999","14887","0.0022537","0.00636519","0.0001581","4200335","0 SPACEBEE-100","1 48883U 21059E   24058.40455387  .00636519  15810-3  22537-2 0  9992","2 48883  97.5985 213.4050 0008823 299.5871  60.4521 15.88961382148870","2021-059E","48883","6683.331","90.625","311.092","299.299","0"
"GENERATED VIA SPACETRACK.ORG API","18 SPCS","48883","SPACEBEE-100","PAYLOAD","U","21059E","2024-02-27 21:47:54","887424","15.89549934","0.0009079","97.5987","213.9682","299.6303","60.4064","0","999","14895","0.0019825","0.00576902","0.00012969","4200457","0 SPACEBEE-100","1 48883U 21059E   24058.90827416  .00576902  12969-3  19825-2 0  9990","2 48883  97.5987 213.9682 0009079 299.6303  60.4064 15.89549934148950","2021-059E","48883","6681.681","90.592","309.612","297.480","0"
"GENERATED VIA SPACETRACK.ORG API","18 SPCS","48883","SPACEBEE-100","PAYLOAD","U","21059E","2024-02-28 03:50:29","267808","15.89870514","0.0009166","97.5991","214.2497","298.8704","61.1647","0","999","14899","0.0020945","0.006193","0.00015099","4200655","0 SPACEBEE-100","1 48883U 21059E   24059.16006097  .00619300  15099-3  20945-2 0  9995","2 48883  97.5991 214.2497 0009166 298.8704  61.1647 15.89870514148996","2021-059E","48883","6680.783","90.573","308.771","296.524","0"
